CCSDS_OMM_VERS = 2.0
CREATION_DATE  = 
ORIGINATOR     = 

OBJECT_NAME    = STARLINK-36878
OBJECT_ID      = 2026-035W
CENTER_NAME    = EARTH
REF_FRAME      = TEME
TIME_SYSTEM    = UTC
MEAN_ELEMENT_THEORY = SGP/SGP4

EPOCH          = 2026-02-25T16:00:01.999584
MEAN_MOTION    = 16.11062181
ECCENTRICITY   = .0000844
INCLINATION    = 97.2824
RA_OF_ASC_NODE = 347.9600
ARG_OF_PERICENTER = 87.5908
MEAN_ANOMALY   = 50.0213

EPHEMERIS_TYPE = 0
CLASSIFICATION_TYPE = U
NORAD_CAT_ID   = 67899
ELEMENT_SET_NO = 999
REV_AT_EPOCH   = 182
BSTAR          = -.43692E-3
MEAN_MOTION_DOT = -.435273E-2
MEAN_MOTION_DDOT = .8006E-4

CCSDS_OMM_VERS = 2.0
CREATION_DATE  = 
ORIGINATOR     = 

OBJECT_NAME    = STARLINK-36361
OBJECT_ID      = 2026-035X
CENTER_NAME    = EARTH
REF_FRAME      = TEME
TIME_SYSTEM    = UTC
MEAN_ELEMENT_THEORY = SGP/SGP4

EPOCH          = 2026-02-25T16:00:01.999584
MEAN_MOTION    = 16.11191603
ECCENTRICITY   = .0000942
INCLINATION    = 97.2824
RA_OF_ASC_NODE = 347.9609
ARG_OF_PERICENTER = 78.6216
MEAN_ANOMALY   = 59.8518

EPHEMERIS_TYPE = 0
CLASSIFICATION_TYPE = U
NORAD_CAT_ID   = 67900
ELEMENT_SET_NO = 999
REV_AT_EPOCH   = 182
BSTAR          = -.43155E-3
MEAN_MOTION_DOT = -.433616E-2
MEAN_MOTION_DDOT = .79638E-4

CCSDS_OMM_VERS = 2.0
CREATION_DATE  = 
ORIGINATOR     = 

OBJECT_NAME    = STARLINK-36336
OBJECT_ID      = 2026-035Y
CENTER_NAME    = EARTH
REF_FRAME      = TEME
TIME_SYSTEM    = UTC
MEAN_ELEMENT_THEORY = SGP/SGP4

EPOCH          = 2026-02-25T16:00:01.999584
MEAN_MOTION    = 16.11564068
ECCENTRICITY   = .0000961
INCLINATION    = 97.2826
RA_OF_ASC_NODE = 347.9618
ARG_OF_PERICENTER = 77.8615
MEAN_ANOMALY   = 63.2012

EPHEMERIS_TYPE = 0
CLASSIFICATION_TYPE = U
NORAD_CAT_ID   = 67901
ELEMENT_SET_NO = 999
REV_AT_EPOCH   = 187
BSTAR          = -.39775E-3
MEAN_MOTION_DOT = -.409729E-2
MEAN_MOTION_DDOT = .7205E-4

CCSDS_OMM_VERS = 2.0
CREATION_DATE  = 
ORIGINATOR     = 

OBJECT_NAME    = STARLINK-36876
OBJECT_ID      = 2026-035Z
CENTER_NAME    = EARTH
REF_FRAME      = TEME
TIME_SYSTEM    = UTC
MEAN_ELEMENT_THEORY = SGP/SGP4

EPOCH          = 2026-02-25T16:00:01.999584
MEAN_MOTION    = 16.11297074
ECCENTRICITY   = .0000809
INCLINATION    = 97.2827
RA_OF_ASC_NODE = 347.9614
ARG_OF_PERICENTER = 83.3646
MEAN_ANOMALY   = 55.8975

EPHEMERIS_TYPE = 0
CLASSIFICATION_TYPE = U
NORAD_CAT_ID   = 67902
ELEMENT_SET_NO = 999
REV_AT_EPOCH   = 182
BSTAR          = -.42446E-3
MEAN_MOTION_DOT = -.429488E-2
MEAN_MOTION_DDOT = .78349E-4

CCSDS_OMM_VERS = 2.0
CREATION_DATE  = 
ORIGINATOR     = 

OBJECT_NAME    = STARLINK-36257
OBJECT_ID      = 2026-035AA
CENTER_NAME    = EARTH
REF_FRAME      = TEME
TIME_SYSTEM    = UTC
MEAN_ELEMENT_THEORY = SGP/SGP4

EPOCH          = 2026-02-25T16:00:01.999584
MEAN_MOTION    = 16.11407163
ECCENTRICITY   = .0000888
INCLINATION    = 97.2825
RA_OF_ASC_NODE = 347.9610
ARG_OF_PERICENTER = 76.4733
MEAN_ANOMALY   = 63.6007

EPHEMERIS_TYPE = 0
CLASSIFICATION_TYPE = U
NORAD_CAT_ID   = 67903
ELEMENT_SET_NO = 999
REV_AT_EPOCH   = 187
BSTAR          = -.41376E-3
MEAN_MOTION_DOT = -.421755E-2
MEAN_MOTION_DDOT = .75862E-4

CCSDS_OMM_VERS = 2.0
CREATION_DATE  = 
ORIGINATOR     = 

OBJECT_NAME    = STARLINK-36814
OBJECT_ID      = 2026-036A
CENTER_NAME    = EARTH
REF_FRAME      = TEME
TIME_SYSTEM    = UTC
MEAN_ELEMENT_THEORY = SGP/SGP4

EPOCH          = 2026-02-25T16:00:01.999584
MEAN_MOTION    = 16.00180346
ECCENTRICITY   = .0001904
INCLINATION    = 42.9977
RA_OF_ASC_NODE = 324.0174
ARG_OF_PERICENTER = 260.7774
MEAN_ANOMALY   = 326.9353

EPHEMERIS_TYPE = 0
CLASSIFICATION_TYPE = U
NORAD_CAT_ID   = 67904
ELEMENT_SET_NO = 999
REV_AT_EPOCH   = 171
BSTAR          = -.23787E-2
MEAN_MOTION_DOT = -.1278372E-1
MEAN_MOTION_DDOT = .51454E-3

CCSDS_OMM_VERS = 2.0
CREATION_DATE  = 
ORIGINATOR     = 

OBJECT_NAME    = STARLINK-36729
OBJECT_ID      = 2026-036B
CENTER_NAME    = EARTH
REF_FRAME      = TEME
TIME_SYSTEM    = UTC
MEAN_ELEMENT_THEORY = SGP/SGP4

EPOCH          = 2026-02-25T16:00:01.999584
MEAN_MOTION    = 16.00266582
ECCENTRICITY   = .0001899
INCLINATION    = 42.9976
RA_OF_ASC_NODE = 324.0153
ARG_OF_PERICENTER = 259.8700
MEAN_ANOMALY   = 328.6168

EPHEMERIS_TYPE = 0
CLASSIFICATION_TYPE = U
NORAD_CAT_ID   = 67905
ELEMENT_SET_NO = 999
REV_AT_EPOCH   = 171
BSTAR          = -.23487E-2
MEAN_MOTION_DOT = -.1268603E-1
MEAN_MOTION_DDOT = .50783E-3

CCSDS_OMM_VERS = 2.0
CREATION_DATE  = 
ORIGINATOR     = 

OBJECT_NAME    = STARLINK-36763
OBJECT_ID      = 2026-036C
CENTER_NAME    = EARTH
REF_FRAME      = TEME
TIME_SYSTEM    = UTC
MEAN_ELEMENT_THEORY = SGP/SGP4

EPOCH          = 2026-02-25T16:00:01.999584
MEAN_MOTION    = 16.00383893
ECCENTRICITY   = .0001898
INCLINATION    = 42.9976
RA_OF_ASC_NODE = 324.0136
ARG_OF_PERICENTER = 261.0907
MEAN_ANOMALY   = 328.0819

EPHEMERIS_TYPE = 0
CLASSIFICATION_TYPE = U
NORAD_CAT_ID   = 67906
ELEMENT_SET_NO = 999
REV_AT_EPOCH   = 171
BSTAR          = -.23143E-2
MEAN_MOTION_DOT = -.1258665E-1
MEAN_MOTION_DDOT = .50121E-3

CCSDS_OMM_VERS = 2.0
CREATION_DATE  = 
ORIGINATOR     = 

OBJECT_NAME    = STARLINK-36742
OBJECT_ID      = 2026-036D
CENTER_NAME    = EARTH
REF_FRAME      = TEME
TIME_SYSTEM    = UTC
MEAN_ELEMENT_THEORY = SGP/SGP4

EPOCH          = 2026-02-25T16:00:01.999584
MEAN_MOTION    = 16.00481353
ECCENTRICITY   = .0001912
INCLINATION    = 42.9976
RA_OF_ASC_NODE = 324.0120
ARG_OF_PERICENTER = 259.9997
MEAN_ANOMALY   = 329.8175

EPHEMERIS_TYPE = 0
CLASSIFICATION_TYPE = U
NORAD_CAT_ID   = 67907
ELEMENT_SET_NO = 999
REV_AT_EPOCH   = 171
BSTAR          = -.2286E-2
MEAN_MOTION_DOT = -.1250368E-1
MEAN_MOTION_DDOT = .49571E-3

CCSDS_OMM_VERS = 2.0
CREATION_DATE  = 
ORIGINATOR     = 

OBJECT_NAME    = STARLINK-36827
OBJECT_ID      = 2026-036E
CENTER_NAME    = EARTH
REF_FRAME      = TEME
TIME_SYSTEM    = UTC
MEAN_ELEMENT_THEORY = SGP/SGP4

EPOCH          = 2026-02-25T16:00:01.999584
MEAN_MOTION    = 16.00621418
ECCENTRICITY   = .0001931
INCLINATION    = 42.9977
RA_OF_ASC_NODE = 324.0101
ARG_OF_PERICENTER = 261.8150
MEAN_ANOMALY   = 328.7416

EPHEMERIS_TYPE = 0
CLASSIFICATION_TYPE = U
NORAD_CAT_ID   = 67908
ELEMENT_SET_NO = 999
REV_AT_EPOCH   = 171
BSTAR          = -.22567E-2
MEAN_MOTION_DOT = -.1244471E-1
MEAN_MOTION_DDOT = .49218E-3

CCSDS_OMM_VERS = 2.0
CREATION_DATE  = 
ORIGINATOR     = 

OBJECT_NAME    = STARLINK-36822
OBJECT_ID      = 2026-036F
CENTER_NAME    = EARTH
REF_FRAME      = TEME
TIME_SYSTEM    = UTC
MEAN_ELEMENT_THEORY = SGP/SGP4

EPOCH          = 2026-02-25T16:00:01.999584
MEAN_MOTION    = 16.00746848
ECCENTRICITY   = .0001911
INCLINATION    = 42.9978
RA_OF_ASC_NODE = 324.0085
ARG_OF_PERICENTER = 260.7526
MEAN_ANOMALY   = 330.4941

EPHEMERIS_TYPE = 0
CLASSIFICATION_TYPE = U
NORAD_CAT_ID   = 67909
ELEMENT_SET_NO = 999
REV_AT_EPOCH   = 171
BSTAR          = -.22383E-2
MEAN_MOTION_DOT = -.1243285E-1
MEAN_MOTION_DDOT = .49199E-3

CCSDS_OMM_VERS = 2.0
CREATION_DATE  = 
ORIGINATOR     = 

OBJECT_NAME    = STARLINK-36847
OBJECT_ID      = 2026-036G
CENTER_NAME    = EARTH
REF_FRAME      = TEME
TIME_SYSTEM    = UTC
MEAN_ELEMENT_THEORY = SGP/SGP4

EPOCH          = 2026-02-25T16:00:01.999584
MEAN_MOTION    = 16.00866471
ECCENTRICITY   = .0001955
INCLINATION    = 42.9978
RA_OF_ASC_NODE = 324.0067
ARG_OF_PERICENTER = 262.4991
MEAN_ANOMALY   = 329.4556

EPHEMERIS_TYPE = 0
CLASSIFICATION_TYPE = U
NORAD_CAT_ID   = 67910
ELEMENT_SET_NO = 999
REV_AT_EPOCH   = 171
BSTAR          = -.21963E-2
MEAN_MOTION_DOT = -.1228671E-1
MEAN_MOTION_DDOT = .4821E-3

