STARLINK-36878          
1 67899U 26035W   26056.66668981 -.00435273  80060-4 -43692-3 0  9995
2 67899  97.2824 347.9600 0000844  87.5908  50.0213 16.11062181  1824
STARLINK-36361          
1 67900U 26035X   26056.66668981 -.00433616  79638-4 -43155-3 0  9990
2 67900  97.2824 347.9609 0000942  78.6216  59.8518 16.11191603  1825
STARLINK-36336          
1 67901U 26035Y   26056.66668981 -.00409729  72050-4 -39775-3 0  9993
2 67901  97.2826 347.9618 0000961  77.8615  63.2012 16.11564068  1875
STARLINK-36876          
1 67902U 26035Z   26056.66668981 -.00429488  78349-4 -42446-3 0  9994
2 67902  97.2827 347.9614 0000809  83.3646  55.8975 16.11297074  1820
STARLINK-36257          
1 67903U 26035AA  26056.66668981 -.00421755  75862-4 -41376-3 0  9992
2 67903  97.2825 347.9610 0000888  76.4733  63.6007 16.11407163  1872
STARLINK-36814          
1 67904U 26036A   26056.66668981 -.01278372  51454-3 -23787-2 0  9995
2 67904  42.9977 324.0174 0001904 260.7774 326.9353 16.00180346  1713
STARLINK-36729          
1 67905U 26036B   26056.66668981 -.01268603  50783-3 -23487-2 0  9993
2 67905  42.9976 324.0153 0001899 259.8700 328.6168 16.00266582  1711
STARLINK-36763          
1 67906U 26036C   26056.66668981 -.01258665  50121-3 -23143-2 0  9996
2 67906  42.9976 324.0136 0001898 261.0907 328.0819 16.00383893  1718
STARLINK-36742          
1 67907U 26036D   26056.66668981 -.01250368  49571-3 -22860-2 0  9991
2 67907  42.9976 324.0120 0001912 259.9997 329.8175 16.00481353  1718
STARLINK-36827          
1 67908U 26036E   26056.66668981 -.01244471  49218-3 -22567-2 0  9992
2 67908  42.9977 324.0101 0001931 261.8150 328.7416 16.00621418  1717
STARLINK-36822          
1 67909U 26036F   26056.66668981 -.01243285  49199-3 -22383-2 0  9999
2 67909  42.9978 324.0085 0001911 260.7526 330.4941 16.00746848  1711
STARLINK-36847          
1 67910U 26036G   26056.66668981 -.01228671  48210-3 -21963-2 0  9999
2 67910  42.9978 324.0067 0001955 262.4991 329.4556 16.00866471  1711
